[{"OBJECT_NAME":"STARLINK-1234","OBJECT_ID":"2020-012N","EPOCH":"2026-03-09T21:47:04.288992","MEAN_MOTION":15.62427923,"ECCENTRICITY":0.00038198,"INCLINATION":53.0447,"RA_OF_ASC_NODE":324.2373,"ARG_OF_PERICENTER":306.6742,"MEAN_ANOMALY":53.392,"EPHEMERIS_TYPE":0,"CLASSIFICATION_TYPE":"U","NORAD_CAT_ID":45190,"ELEMENT_SET_NO":999,"REV_AT_EPOCH":33591,"BSTAR":0.0016464454,"MEAN_MOTION_DOT":0.0015115,"MEAN_MOTION_DDOT":0},{"OBJECT_NAME":"SCOUT X-1 DEB","OBJECT_ID":"1961-004F","EPOCH":"2026-03-01T00:08:32.328672","MEAN_MOTION":15.46428893,"ECCENTRICITY":0.00336749,"INCLINATION":39.0085,"RA_OF_ASC_NODE":274.0703,"ARG_OF_PERICENTER":55.969,"MEAN_ANOMALY":304.4293,"EPHEMERIS_TYPE":0,"CLASSIFICATION_TYPE":"U","NORAD_CAT_ID":3927,"ELEMENT_SET_NO":999,"REV_AT_EPOCH":11451,"BSTAR":0.009395543,"MEAN_MOTION_DOT":0.00520474,"MEAN_MOTION_DDOT":0}]
